NORAD_CAT_ID,OBJECT_NAME,OBJECT_TYPE,EPOCH,MEAN_MOTION,ECCENTRICITY,INCLINATION,RA_OF_ASC_NODE,ARG_OF_PERICENTER,MEAN_ANOMALY,BSTAR,MEAN_MOTION_DOT,MEAN_MOTION_DDOT,TLE_LINE0,TLE_LINE1,TLE_LINE2,SEMIMAJOR_AXIS,PERIOD,APOGEE,PERIGEE,DECAYED
51994.0,STARLINK-3647,PAYLOAD,2024-02-12 17:35:57,15.08850012,0.0001594,53.2176,172.738,81.0343,279.0829,2.906e-05,1.75e-06,0.0,0 STARLINK-3647,1 51994U 22025AQ  24043.73330179  .00000175  00000-0  29060-4 0  9999,2 51994  53.2176 172.7380 0001594  81.0343 279.0829 15.08850012108321,6917.85,95.437,540.817,538.612,0.0
51994.0,STARLINK-3647,PAYLOAD,2024-02-13 01:32:54,15.08831089,0.0001381,53.2177,171.2522,92.4234,267.6916,-4.3941e-05,-9.87e-06,0.0,0 STARLINK-3647,1 51994U 22025AQ  24044.06451496 -.00000987  00000-0 -43941-4 0  9999,2 51994  53.2177 171.2522 0001381  92.4234 267.6916 15.08831089108371,6917.908,95.438,540.728,538.817,0.0
51994.0,STARLINK-3647,PAYLOAD,2024-02-13 14:15:59,15.08835517,0.0001578,53.2175,168.877,88.199,271.9183,-0.00011627,-2.138e-05,0.0,0 STARLINK-3647,1 51994U 22025AQ  24044.59443932 -.00002138  00000-0 -11627-3 0  9998,2 51994  53.2175 168.8770 0001578  88.1990 271.9183 15.08835517106928,6917.894,95.438,540.851,538.667,0.0
51994.0,STARLINK-3647,PAYLOAD,2024-02-13 15:51:22,15.0884315,0.0001481,53.2178,168.576,83.829,276.287,-1.4635e-05,-5.21e-06,0.0,0 STARLINK-3647,1 51994U 22025AQ  24044.66067163 -.00000521  00000-0 -14635-4 0  9991,2 51994  53.2178 168.5760 0001481  83.8290 276.2870 15.08843150108469,6917.871,95.437,540.76,538.711,0.0
51994.0,STARLINK-3647,PAYLOAD,2024-02-14 14:06:44,15.08854414,0.0001584,53.2158,164.4129,102.3034,257.8135,0.00010606,1.401e-05,0.0,0 STARLINK-3647,1 51994U 22025AQ  24045.58801857  .00001401  00000-0  10606-3 0  9998,2 51994  53.2158 164.4129 0001584 102.3034 257.8135 15.08854414107078,6917.836,95.437,540.797,538.606,0.0
51994.0,STARLINK-3647,PAYLOAD,2024-02-14 17:17:29,15.08869917,0.0001474,53.217,163.8184,90.0905,270.0256,0.00024359,3.594e-05,0.0,0 STARLINK-3647,1 51994U 22025AQ  24045.72048538  .00003594  00000-0  24359-3 0  9998,2 51994  53.2170 163.8184 0001474  90.0905 270.0256 15.08869917108621,6917.789,95.436,540.674,538.634,0.0
51994.0,STARLINK-3647,PAYLOAD,2024-02-15 01:14:28,15.08833833,0.000202,53.2167,162.3323,82.9937,277.1285,-7.8434e-05,-1.536e-05,0.0,0 STARLINK-3647,1 51994U 22025AQ  24046.05171712 -.00001536  00000-0 -78434-4 0  9996,2 51994  53.2167 162.3323 0002020  82.9937 277.1285 15.08833833108672,6917.899,95.438,541.162,538.367,0.0
51994.0,STARLINK-3647,PAYLOAD,2024-02-15 13:57:33,15.08830917,0.0001686,53.2173,159.9561,71.2095,288.9079,5.3238e-05,5.59e-06,0.0,0 STARLINK-3647,1 51994U 22025AQ  24046.58163916  .00000559  00000-0  53238-4 0  9998,2 51994  53.2173 159.9561 0001686  71.2095 288.9079 15.08830917107229,6917.908,95.438,540.94,538.607,0.0
51994.0,STARLINK-3647,PAYLOAD,2024-02-16 12:12:56,15.0885732,0.0001298,53.2173,155.7912,87.9329,272.1811,-0.0001136,-2.096e-05,0.0,0 STARLINK-3647,1 51994U 22025AQ  24047.50898495 -.00002096  00000-0 -11360-3 0  9997,2 51994  53.2173 155.7912 0001298  87.9329 272.1811 15.08857320108896,6917.827,95.436,540.59,538.795,0.0
51994.0,STARLINK-3647,PAYLOAD,2024-02-16 13:48:19,15.08858396,0.0001216,53.2168,155.4923,89.265,270.8481,-8.8942e-05,-1.704e-05,0.0,0 STARLINK-3647,1 51994U 22025AQ  24047.57522221 -.00001704  00000-0 -88942-4 0  9991,2 51994  53.2168 155.4923 0001216  89.2650 270.8481 15.08858396107375,6917.824,95.436,540.53,538.848,0.0
51994.0,STARLINK-3647,PAYLOAD,2024-02-17 12:03:44,15.08825204,0.000116,53.2185,151.3336,80.4076,279.7047,0.00011551,1.55e-05,0.0,0 STARLINK-3647,1 51994U 22025AQ  24048.50260030  .00001550  00000-0  11551-3 0  9990,2 51994  53.2185 151.3336 0001160  80.4076 279.7047 15.08825204109044,6917.926,95.438,540.593,538.988,0.0
51994.0,STARLINK-3647,PAYLOAD,2024-02-17 13:39:07,15.08836301,9.97e-05,53.2162,151.0317,86.2419,273.8687,5.979e-05,6.64e-06,0.0,0 STARLINK-3647,1 51994U 22025AQ  24048.56883461  .00000664  00000-0  59790-4 0  9998,2 51994  53.2162 151.0317 0000997  86.2419 273.8687 15.08836301107523,6917.892,95.438,540.446,539.067,0.0
51994.0,STARLINK-3647,PAYLOAD,2024-02-17 16:49:53,15.08839502,9.53e-05,53.2164,150.435,81.3053,278.8047,5.2501e-05,5.48e-06,0.0,0 STARLINK-3647,1 51994U 22025AQ  24048.70131262  .00000548  00000-0  52501-4 0  9993,2 51994  53.2164 150.4350 0000953  81.3053 278.8047 15.08839502109070,6917.882,95.438,540.406,539.088,0.0
51994.0,STARLINK-3647,PAYLOAD,2024-02-18 13:29:53,15.08845958,0.0001241,53.2178,146.5755,91.3147,268.7988,7.8167e-05,9.57e-06,0.0,0 STARLINK-3647,1 51994U 22025AQ  24049.56242988  .00000957  00000-0  78167-4 0  9996,2 51994  53.2178 146.5755 0001241  91.3147 268.7988 15.08845958107674,6917.862,95.437,540.586,538.869,0.0
51994.0,STARLINK-3647,PAYLOAD,2024-02-18 23:02:13,15.08837613,8.7e-05,53.2149,144.7907,81.9154,278.1937,6.2584e-05,7.08e-06,0.0,0 STARLINK-3647,1 51994U 22025AQ  24049.95987565  .00000708  00000-0  62584-4 0  9996,2 51994  53.2149 144.7907 0000870  81.9154 278.1937 15.08837613109266,6917.888,95.438,540.355,539.151,0.0
51994.0,STARLINK-3647,PAYLOAD,2024-02-19 11:45:19,15.08823217,0.0001488,53.2177,142.4169,114.8396,245.2751,0.00014113,1.958e-05,0.0,0 STARLINK-3647,1 51994U 22025AQ  24050.48980538  .00001958  00000-0  14113-3 0  9991,2 51994  53.2177 142.4169 0001488 114.8396 245.2751 15.08823217109345,6917.932,95.439,540.826,538.767,0.0
51994.0,STARLINK-3647,PAYLOAD,2024-02-19 13:20:42,15.08831056,0.0001334,53.2168,142.1176,110.3651,249.7485,1.5667e-05,-3.9e-07,0.0,0 STARLINK-3647,1 51994U 22025AQ  24050.55604501 -.00000039  00000-0  15667-4 0  9998,2 51994  53.2168 142.1176 0001334 110.3651 249.7485 15.08831056107829,6917.908,95.438,540.696,538.85,0.0
51994.0,STARLINK-3647,PAYLOAD,2024-02-19 22:53:00,15.08837499,0.000147,53.2183,140.3325,101.9231,258.1926,1.6365e-05,-2.8e-07,0.0,0 STARLINK-3647,1 51994U 22025AQ  24050.95348190 -.00000028  00000-0  16365-4 0  9995,2 51994  53.2183 140.3325 0001470 101.9231 258.1926 15.08837499107880,6917.888,95.438,540.77,538.736,0.0
51994.0,STARLINK-3647,PAYLOAD,2024-02-20 13:11:29,15.08841249,0.0001402,53.2172,137.654,94.4423,265.6729,-2.338e-05,-6.6e-06,0.0,0 STARLINK-3647,1 51994U 22025AQ  24051.54964297 -.00000660  00000-0 -23380-4 0  9991,2 51994  53.2172 137.6540 0001402  94.4423 265.6729 15.08841249107972,6917.877,95.437,540.711,538.772,0.0
51994.0,STARLINK-3647,PAYLOAD,2024-02-21 11:26:52,15.08830201,0.0001556,53.2174,133.4914,102.0588,258.0579,0.00029665,4.435e-05,0.0,0 STARLINK-3647,1 51994U 22025AQ  24052.47700221  .00004435  00000-0  29665-3 0  9992,2 51994  53.2174 133.4914 0001556 102.0588 258.0579 15.08830201109642,6917.91,95.438,540.852,538.699,0.0
51994.0,STARLINK-3647,PAYLOAD,2024-02-21 13:02:15,15.08847215,0.0001463,53.2172,133.1938,99.5408,260.5749,0.00010859,1.441e-05,0.0,0 STARLINK-3647,1 51994U 22025AQ  24052.54323481  .00001441  00000-0  10859-3 0  9998,2 51994  53.2172 133.1938 0001463  99.5408 260.5749 15.08847215108123,6917.858,95.437,540.735,538.711,0.0
51994.0,STARLINK-3647,PAYLOAD,2024-02-22 04:56:07,15.0883657,0.0001668,53.2188,130.22,88.5546,271.5637,3.4433e-05,2.6e-06,0.0,0 STARLINK-3647,1 51994U 22025AQ  24053.20564565  .00000260  00000-0  34433-4 0  9995,2 51994  53.2188 130.2200 0001668  88.5546 271.5637 15.08836570109758,6917.891,95.438,540.91,538.602,0.0
51994.0,STARLINK-3647,PAYLOAD,2024-02-22 11:17:40,15.08837327,0.0001664,53.2187,129.0296,89.2009,270.9174,3.8877e-05,3.31e-06,0.0,0 STARLINK-3647,1 51994U 22025AQ  24053.47060552  .00000331  00000-0  38877-4 0  9996,2 51994  53.2187 129.0296 0001664  89.2009 270.9174 15.08837327108261,6917.889,95.438,540.905,538.602,0.0
51994.0,STARLINK-3647,PAYLOAD,2024-02-23 11:08:26,15.08851436,0.0001666,53.218,124.5691,96.357,263.7612,5.6335e-05,6.09e-06,0.0,0 STARLINK-3647,1 51994U 22025AQ  24054.46419282  .00000609  00000-0  56335-4 0  9991,2 51994  53.2180 124.5691 0001666  96.3570 263.7612 15.08851436109947,6917.845,95.437,540.863,538.558,0.0
51994.0,STARLINK-3647,PAYLOAD,2024-02-24 04:37:41,15.08835456,0.000162,53.2173,121.2981,89.2445,270.8733,2.7197e-05,1.45e-06,0.0,0 STARLINK-3647,1 51994U 22025AQ  24055.19284328  .00000145  00000-0  27197-4 0  9992,2 51994  53.2173 121.2981 0001620  89.2445 270.8733 15.08835456110058,6917.894,95.438,540.88,538.639,0.0
51994.0,STARLINK-3647,PAYLOAD,2024-02-24 10:59:14,15.08837478,0.0001603,53.2175,120.1066,91.6249,268.4927,-5.677e-07,-2.97e-06,0.0,0 STARLINK-3647,1 51994U 22025AQ  24055.45780325 -.00000297  00000-0 -56770-6 0  9990,2 51994  53.2175 120.1066 0001603  91.6249 268.4927 15.08837478108569,6917.888,95.438,540.862,538.644,0.0
51994.0,STARLINK-3647,PAYLOAD,2024-02-25 10:50:00,15.08846951,0.0001423,53.2171,115.6473,89.2009,270.9146,-3.6733e-06,-3.46e-06,0.0,0 STARLINK-3647,1 51994U 22025AQ  24056.45139738 -.00000346  00000-0 -36733-5 0  9998,2 51994  53.2171 115.6473 0001423  89.2009 270.9146 15.08846951110248,6917.859,95.437,540.709,538.74,0.0
51994.0,STARLINK-3647,PAYLOAD,2024-02-25 20:22:19,15.0884441,0.0001457,53.2168,113.8642,88.9901,271.1258,-3.4924e-05,-8.44e-06,0.0,0 STARLINK-3647,1 51994U 22025AQ  24056.84883865 -.00000844  00000-0 -34924-4 0  9990,2 51994  53.2168 113.8642 0001457  88.9901 271.1258 15.08844410108776,6917.867,95.437,540.74,538.724,0.0
51994.0,STARLINK-3647,PAYLOAD,2024-02-26 04:19:16,15.08827763,0.0001832,53.2171,112.3767,81.473,278.647,1.1654e-06,-2.7e-06,0.0,0 STARLINK-3647,1 51994U 22025AQ  24057.18005171 -.00000270  00000-0  11654-5 0  9992,2 51994  53.2171 112.3767 0001832  81.4730 278.6470 15.08827763110354,6917.918,95.438,541.05,538.515,0.0
51994.0,STARLINK-3647,PAYLOAD,2024-02-26 09:05:25,15.08825645,0.0001847,53.2193,111.4914,106.9111,253.2084,1.9234e-05,1.8e-07,0.0,0 STARLINK-3647,1 51994U 22025AQ  24057.37877217  .00000018  00000-0  19234-4 0  9991,2 51994  53.2193 111.4914 0001847 106.9111 253.2084 15.08825645108853,6917.924,95.438,541.067,538.512,0.0
